HAWK-11C                
1 62381U 24247E   26068.51221537  .00009223  00000+0  33290-3 0  9992
2 62381  45.0045 114.8762 0005900 329.7040  30.3502 15.28848020 67743
STARLINK-33630          
1 63477U 25070T   26068.53279217  .00040201  00000+0  14629-2 0  9999
2 63477  42.9982 257.0985 0001498 254.5646 105.5040 15.27568423 52996
